COSMOS 1892             
1 18421U 87088A   25302.45620446  .00235914  18898-4  77278-3 0  9996
2 18421  82.4695  93.5251 0004761 324.5977  35.4979 15.90487704 84231
SL-14 R/B               
1 18749U 88001B   25302.52035859  .00000659  00000+0  73731-4 0  9999
2 18749  82.5115 318.7485 0016930 315.9000  44.0865 14.85352493 22551
COSMOS 1933             
1 18958U 88020A   25302.48838826  .00005990  00000+0  30525-3 0  9998
2 18958  82.5168  20.5788 0003091 302.8910  57.2026 15.16591606 30330
SL-3 R/B                
1 19046U 88032B   25302.51048498  .00007633  00000+0  37492-3 0  9998
2 19046  97.5042 281.5690 0026211 335.1237  24.8731 15.18047400 32196
SL-16 R/B               
1 19120U 88039B   25302.49556628  .00000006  00000+0  25574-4 0  9990
2 19120  71.0160 345.9519 0022018 187.5371 172.5426 14.19585935939762
COSMOS 1953             
1 19210U 88050A   25302.45920763  .00008095  00000+0  31104-3 0  9995
2 19210  82.5067 289.9953 0010547 217.4913 142.5590 15.26225411 17757
SL-8 R/B                
1 19257U 88053B   25302.54857505  .00000356  00000+0  12415-3 0  9998
2 19257  74.0490 354.1679 0020648 210.6566 313.6535 14.38819184957735
COSMOS 1975             
1 19573U 88093A   25302.32139452  .00014071  00000+0  55507-3 0  9991
2 19573  82.5202 249.2564 0009379 276.8029  83.2142 15.25398494999355
SL-14 R/B               
1 19574U 88093B   25302.40684012  .00000617  00000+0  68390-4 0  9994
2 19574  82.5318 165.2690 0022187 110.8742  61.9506 14.85483307981544
SL-16 R/B               
1 19650U 88102B   25302.52287481  .00000279  00000+0  16484-3 0  9992
2 19650  70.9998  67.4755 0015507 217.8761 142.1272 14.16129035908322
INTERCOSMOS 24          
1 20261U 89080A   25302.40941795  .00000687  00000+0  20357-3 0  9997
2 20261  82.6100 189.7777 1187579 237.3867 110.7170 12.59345760650279
SL-14 R/B               
1 20262U 89080C   25302.33715432  .00000327  00000+0  89212-4 0  9994
2 20262  82.5907 257.5167 1231491 125.0030 247.3000 12.50368987643738
