CCSDS_OMM_VERS = 2.0
CREATION_DATE  = 
ORIGINATOR     = 

OBJECT_NAME    = COSMOS 1892
OBJECT_ID      = 1987-088A
CENTER_NAME    = EARTH
REF_FRAME      = TEME
TIME_SYSTEM    = UTC
MEAN_ELEMENT_THEORY = SGP/SGP4

EPOCH          = 2025-10-29T10:56:56.065344
MEAN_MOTION    = 15.90487704
ECCENTRICITY   = .0004761
INCLINATION    = 82.4695
RA_OF_ASC_NODE = 93.5251
ARG_OF_PERICENTER = 324.5977
MEAN_ANOMALY   = 35.4979

EPHEMERIS_TYPE = 0
CLASSIFICATION_TYPE = U
NORAD_CAT_ID   = 18421
ELEMENT_SET_NO = 999
REV_AT_EPOCH   = 8423
BSTAR          = .77278E-3
MEAN_MOTION_DOT = .235914E-2
MEAN_MOTION_DDOT = .18898E-4

CCSDS_OMM_VERS = 2.0
CREATION_DATE  = 
ORIGINATOR     = 

OBJECT_NAME    = SL-14 R/B
OBJECT_ID      = 1988-001B
CENTER_NAME    = EARTH
REF_FRAME      = TEME
TIME_SYSTEM    = UTC
MEAN_ELEMENT_THEORY = SGP/SGP4

EPOCH          = 2025-10-29T12:29:18.982176
MEAN_MOTION    = 14.85352493
ECCENTRICITY   = .001693
INCLINATION    = 82.5115
RA_OF_ASC_NODE = 318.7485
ARG_OF_PERICENTER = 315.9000
MEAN_ANOMALY   = 44.0865

EPHEMERIS_TYPE = 0
CLASSIFICATION_TYPE = U
NORAD_CAT_ID   = 18749
ELEMENT_SET_NO = 999
REV_AT_EPOCH   = 2255
BSTAR          = .73731E-4
MEAN_MOTION_DOT = .659E-5
MEAN_MOTION_DDOT = 0

CCSDS_OMM_VERS = 2.0
CREATION_DATE  = 
ORIGINATOR     = 

OBJECT_NAME    = COSMOS 1933
OBJECT_ID      = 1988-020A
CENTER_NAME    = EARTH
REF_FRAME      = TEME
TIME_SYSTEM    = UTC
MEAN_ELEMENT_THEORY = SGP/SGP4

EPOCH          = 2025-10-29T11:43:16.745664
MEAN_MOTION    = 15.16591606
ECCENTRICITY   = .0003091
INCLINATION    = 82.5168
RA_OF_ASC_NODE = 20.5788
ARG_OF_PERICENTER = 302.8910
MEAN_ANOMALY   = 57.2026

EPHEMERIS_TYPE = 0
CLASSIFICATION_TYPE = U
NORAD_CAT_ID   = 18958
ELEMENT_SET_NO = 999
REV_AT_EPOCH   = 3033
BSTAR          = .30525E-3
MEAN_MOTION_DOT = .599E-4
MEAN_MOTION_DDOT = 0

CCSDS_OMM_VERS = 2.0
CREATION_DATE  = 
ORIGINATOR     = 

OBJECT_NAME    = SL-3 R/B
OBJECT_ID      = 1988-032B
CENTER_NAME    = EARTH
REF_FRAME      = TEME
TIME_SYSTEM    = UTC
MEAN_ELEMENT_THEORY = SGP/SGP4

EPOCH          = 2025-10-29T12:15:05.902272
MEAN_MOTION    = 15.18047400
ECCENTRICITY   = .0026211
INCLINATION    = 97.5042
RA_OF_ASC_NODE = 281.5690
ARG_OF_PERICENTER = 335.1237
MEAN_ANOMALY   = 24.8731

EPHEMERIS_TYPE = 0
CLASSIFICATION_TYPE = U
NORAD_CAT_ID   = 19046
ELEMENT_SET_NO = 999
REV_AT_EPOCH   = 3219
BSTAR          = .37492E-3
MEAN_MOTION_DOT = .7633E-4
MEAN_MOTION_DDOT = 0

CCSDS_OMM_VERS = 2.0
CREATION_DATE  = 
ORIGINATOR     = 

OBJECT_NAME    = SL-16 R/B
OBJECT_ID      = 1988-039B
CENTER_NAME    = EARTH
REF_FRAME      = TEME
TIME_SYSTEM    = UTC
MEAN_ELEMENT_THEORY = SGP/SGP4

EPOCH          = 2025-10-29T11:53:36.926592
MEAN_MOTION    = 14.19585935
ECCENTRICITY   = .0022018
INCLINATION    = 71.0160
RA_OF_ASC_NODE = 345.9519
ARG_OF_PERICENTER = 187.5371
MEAN_ANOMALY   = 172.5426

EPHEMERIS_TYPE = 0
CLASSIFICATION_TYPE = U
NORAD_CAT_ID   = 19120
ELEMENT_SET_NO = 999
REV_AT_EPOCH   = 93976
BSTAR          = .25574E-4
MEAN_MOTION_DOT = .6E-7
MEAN_MOTION_DDOT = 0

CCSDS_OMM_VERS = 2.0
CREATION_DATE  = 
ORIGINATOR     = 

OBJECT_NAME    = COSMOS 1953
OBJECT_ID      = 1988-050A
CENTER_NAME    = EARTH
REF_FRAME      = TEME
TIME_SYSTEM    = UTC
MEAN_ELEMENT_THEORY = SGP/SGP4

EPOCH          = 2025-10-29T11:01:15.539232
MEAN_MOTION    = 15.26225411
ECCENTRICITY   = .0010547
INCLINATION    = 82.5067
RA_OF_ASC_NODE = 289.9953
ARG_OF_PERICENTER = 217.4913
MEAN_ANOMALY   = 142.5590

EPHEMERIS_TYPE = 0
CLASSIFICATION_TYPE = U
NORAD_CAT_ID   = 19210
ELEMENT_SET_NO = 999
REV_AT_EPOCH   = 1775
BSTAR          = .31104E-3
MEAN_MOTION_DOT = .8095E-4
MEAN_MOTION_DDOT = 0

CCSDS_OMM_VERS = 2.0
CREATION_DATE  = 
ORIGINATOR     = 

OBJECT_NAME    = SL-8 R/B
OBJECT_ID      = 1988-053B
CENTER_NAME    = EARTH
REF_FRAME      = TEME
TIME_SYSTEM    = UTC
MEAN_ELEMENT_THEORY = SGP/SGP4

EPOCH          = 2025-10-29T13:09:56.884320
MEAN_MOTION    = 14.38819184
ECCENTRICITY   = .0020648
INCLINATION    = 74.0490
RA_OF_ASC_NODE = 354.1679
ARG_OF_PERICENTER = 210.6566
MEAN_ANOMALY   = 313.6535

EPHEMERIS_TYPE = 0
CLASSIFICATION_TYPE = U
NORAD_CAT_ID   = 19257
ELEMENT_SET_NO = 999
REV_AT_EPOCH   = 95773
BSTAR          = .12415E-3
MEAN_MOTION_DOT = .356E-5
MEAN_MOTION_DDOT = 0

CCSDS_OMM_VERS = 2.0
CREATION_DATE  = 
ORIGINATOR     = 

OBJECT_NAME    = COSMOS 1975
OBJECT_ID      = 1988-093A
CENTER_NAME    = EARTH
REF_FRAME      = TEME
TIME_SYSTEM    = UTC
MEAN_ELEMENT_THEORY = SGP/SGP4

EPOCH          = 2025-10-29T07:42:48.485664
MEAN_MOTION    = 15.25398494
ECCENTRICITY   = .000938
INCLINATION    = 82.5202
RA_OF_ASC_NODE = 249.2564
ARG_OF_PERICENTER = 276.8029
MEAN_ANOMALY   = 83.2142

EPHEMERIS_TYPE = 0
CLASSIFICATION_TYPE = U
NORAD_CAT_ID   = 19573
ELEMENT_SET_NO = 999
REV_AT_EPOCH   = 99935
BSTAR          = .55507E-3
MEAN_MOTION_DOT = .14071E-3
MEAN_MOTION_DDOT = 0

CCSDS_OMM_VERS = 2.0
CREATION_DATE  = 
ORIGINATOR     = 

OBJECT_NAME    = SL-14 R/B
OBJECT_ID      = 1988-093B
CENTER_NAME    = EARTH
REF_FRAME      = TEME
TIME_SYSTEM    = UTC
MEAN_ELEMENT_THEORY = SGP/SGP4

EPOCH          = 2025-10-29T09:45:50.986368
MEAN_MOTION    = 14.85483307
ECCENTRICITY   = .0022187
INCLINATION    = 82.5318
RA_OF_ASC_NODE = 165.2690
ARG_OF_PERICENTER = 110.8742
MEAN_ANOMALY   = 61.9506

EPHEMERIS_TYPE = 0
CLASSIFICATION_TYPE = U
NORAD_CAT_ID   = 19574
ELEMENT_SET_NO = 999
REV_AT_EPOCH   = 98154
BSTAR          = .6839E-4
MEAN_MOTION_DOT = .617E-5
MEAN_MOTION_DDOT = 0

CCSDS_OMM_VERS = 2.0
CREATION_DATE  = 
ORIGINATOR     = 

OBJECT_NAME    = SL-16 R/B
OBJECT_ID      = 1988-102B
CENTER_NAME    = EARTH
REF_FRAME      = TEME
TIME_SYSTEM    = UTC
MEAN_ELEMENT_THEORY = SGP/SGP4

EPOCH          = 2025-10-29T12:32:56.383584
MEAN_MOTION    = 14.16129035
ECCENTRICITY   = .0015507
INCLINATION    = 70.9998
RA_OF_ASC_NODE = 67.4755
ARG_OF_PERICENTER = 217.8761
MEAN_ANOMALY   = 142.1272

EPHEMERIS_TYPE = 0
CLASSIFICATION_TYPE = U
NORAD_CAT_ID   = 19650
ELEMENT_SET_NO = 999
REV_AT_EPOCH   = 90832
BSTAR          = .16484E-3
MEAN_MOTION_DOT = .279E-5
MEAN_MOTION_DDOT = 0

CCSDS_OMM_VERS = 2.0
CREATION_DATE  = 
ORIGINATOR     = 

OBJECT_NAME    = INTERCOSMOS 24
OBJECT_ID      = 1989-080A
CENTER_NAME    = EARTH
REF_FRAME      = TEME
TIME_SYSTEM    = UTC
MEAN_ELEMENT_THEORY = SGP/SGP4

EPOCH          = 2025-10-29T09:49:33.710880
MEAN_MOTION    = 12.59345760
ECCENTRICITY   = .1187579
INCLINATION    = 82.6100
RA_OF_ASC_NODE = 189.7777
ARG_OF_PERICENTER = 237.3867
MEAN_ANOMALY   = 110.7170

EPHEMERIS_TYPE = 0
CLASSIFICATION_TYPE = U
NORAD_CAT_ID   = 20261
ELEMENT_SET_NO = 999
REV_AT_EPOCH   = 65027
BSTAR          = .20357E-3
MEAN_MOTION_DOT = .687E-5
MEAN_MOTION_DDOT = 0

CCSDS_OMM_VERS = 2.0
CREATION_DATE  = 
ORIGINATOR     = 

OBJECT_NAME    = SL-14 R/B
OBJECT_ID      = 1989-080C
CENTER_NAME    = EARTH
REF_FRAME      = TEME
TIME_SYSTEM    = UTC
MEAN_ELEMENT_THEORY = SGP/SGP4

EPOCH          = 2025-10-29T08:05:30.133248
MEAN_MOTION    = 12.50368987
ECCENTRICITY   = .1231491
INCLINATION    = 82.5907
RA_OF_ASC_NODE = 257.5167
ARG_OF_PERICENTER = 125.0030
MEAN_ANOMALY   = 247.3000

EPHEMERIS_TYPE = 0
CLASSIFICATION_TYPE = U
NORAD_CAT_ID   = 20262
ELEMENT_SET_NO = 999
REV_AT_EPOCH   = 64373
BSTAR          = .89212E-4
MEAN_MOTION_DOT = .327E-5
MEAN_MOTION_DDOT = 0

